[Satellite]
VERSION=1.1
NAME=CANX-2
NICKNAME=CANX-2
TLE1=1 32790U 08021H   17185.97992501  .00000182  00000-0  25638-4 0  9995
TLE2=2 32790  97.5633 207.8032 0015377 109.2536 251.0346 14.87625855497403
